NORAD_CAT_ID,OBJECT_NAME,OBJECT_TYPE,EPOCH,MEAN_MOTION,ECCENTRICITY,INCLINATION,RA_OF_ASC_NODE,ARG_OF_PERICENTER,MEAN_ANOMALY,BSTAR,MEAN_MOTION_DOT,MEAN_MOTION_DDOT,TLE_LINE0,TLE_LINE1,TLE_LINE2,SEMIMAJOR_AXIS,PERIOD,APOGEE,PERIGEE,DECAYED
53864.0,STARLINK-4779,PAYLOAD,2022-12-23 00:00:00,15.47169088,0.0001478,53.2171,150.1998,44.3443,241.9564,-0.024313,-0.01147571,0.0,0 STARLINK-4779,1 53864U 22114AY  22357.00001157 -.01147571  00000-0 -24313-1 0  9991,2 53864  53.2171 150.1998 0001478  44.3443 241.9564 15.47169088  1306,6803.149,93.073,426.02,424.009,0.0
53864.0,STARLINK-4779,PAYLOAD,2022-12-23 14:00:01,15.45748695,0.0001544,53.217,147.4259,38.6887,256.9803,-0.025637,-0.01151468,0.0,0 STARLINK-4779,1 53864U 22114AY  22357.58334491 -.01151468  00000-0 -25637-1 0  9994,2 53864  53.2170 147.4259 0001544  38.6887 256.9803 15.45748695  1303,6807.316,93.159,430.232,428.13,0.0
53864.0,STARLINK-4779,PAYLOAD,2022-12-23 16:00:00,15.45539122,0.0001732,53.2172,147.0307,32.056999999999995,7.5661,-0.025631,-0.01143669,0.0,0 STARLINK-4779,1 53864U 22114AY  22357.66667824 -.01143669  00000-0 -25631-1 0  9990,2 53864  53.2172 147.0307 0001732  32.0570   7.5661 15.45539122 15615,6807.931,93.171,430.976,428.617,0.0
53864.0,STARLINK-4779,PAYLOAD,2022-12-23 22:00:01,15.44935637,0.0001571,53.2167,145.8451,37.8971,313.2734,-0.026375,-0.01151855,0.0,0 STARLINK-4779,1 53864U 22114AY  22357.91668981 -.01151855  00000-0 -26375-1 0  9995,2 53864  53.2167 145.8451 0001571  37.8971 313.2734 15.44935637  1303,6809.704000000002,93.208,432.639,430.499,0.0
53864.0,STARLINK-4779,PAYLOAD,2022-12-24 14:00:01,15.43311528,0.0001658,53.2169,142.6853,40.1232,58.9257,-0.028029,-0.01157504,0.0,0 STARLINK-4779,1 53864U 22114AY  22358.58334491 -.01157504  00000-0 -28029-1 0  9990,2 53864  53.2169 142.6853 0001658  40.1232  58.9257 15.43311528  1308,6814.481,93.306,437.476,435.216,0.0
53864.0,STARLINK-4779,PAYLOAD,2022-12-24 16:00:00,15.43094999,0.0001715,53.2171,142.2915,44.464,157.8083,-0.027735,-0.01138718,0.0,0 STARLINK-4779,1 53864U 22114AY  22358.66667824 -.01138718  00000-0 -27735-1 0  9997,2 53864  53.2171 142.2915 0001715  44.4640 157.8083 15.43094999 15761,6815.118,93.319,438.152,435.815,0.0
53864.0,STARLINK-4779,PAYLOAD,2022-12-24 22:00:00,15.42489628,0.0001861,53.2166,141.1102,38.6867,112.8694,-0.028466,-0.01144529,0.0,0 STARLINK-4779,1 53864U 22114AY  22358.91667824 -.01144529  00000-0 -28466-1 0  9994,2 53864  53.2166 141.1102 0001861  38.6867 112.8694 15.42489628  1309,6816.901,93.356,440.035,437.49800000000016,0.0
53864.0,STARLINK-4779,PAYLOAD,2022-12-25 14:00:01,15.40867991,0.0001511,53.2169,137.9622,52.7008,200.9292,-0.030287,-0.0115234,0.0,0 STARLINK-4779,1 53864U 22114AY  22359.58334491 -.01152340  00000-0 -30287-1 0  9993,2 53864  53.2169 137.9622 0001511  52.7008 200.9292 15.40867991 15903,6821.683000000001,93.454,444.579,442.518,0.0
53864.0,STARLINK-4779,PAYLOAD,2022-12-26 00:00:00,15.39842866,0.000164,53.217,135.9995,35.6104,9.8351,-0.031035,-0.01142159,0.0,0 STARLINK-4779,1 53864U 22114AY  22360.00001157 -.01142159  00000-0 -31035-1 0  9991,2 53864  53.2170 135.9995 0001640  35.6104   9.8351 15.39842866  1309,6824.7109999999975,93.516,447.695,445.456,0.0
53864.0,STARLINK-4779,PAYLOAD,2022-12-26 14:00:01,15.38432072,0.0001675,53.2172,133.2565,34.0398,5.3683,-0.033083,-0.01160383,0.0,0 STARLINK-4779,1 53864U 22114AY  22360.58334491 -.01160383  00000-0 -33083-1 0  9998,2 53864  53.2172 133.2565 0001675  34.0398   5.3683 15.38432072  1303,6828.882,93.602,451.891,449.603,0.0
53864.0,STARLINK-4779,PAYLOAD,2022-12-27 00:00:00,15.37399935,0.000183,53.2172,131.3006,38.2007,149.3588,-0.033538,-0.0113925,0.0,0 STARLINK-4779,1 53864U 22114AY  22361.00001157 -.01139250  00000-0 -33538-1 0  9990,2 53864  53.2172 131.3006 0001830  38.2007 149.3588 15.37399935 16126,6831.938,93.665,455.054,452.55300000000005,0.0
53864.0,STARLINK-4779,PAYLOAD,2022-12-27 14:00:01,15.36002956,0.0001614,53.2173,128.5682,39.8154,136.5661,-0.036356,-0.01176484,0.0,0 STARLINK-4779,1 53864U 22114AY  22361.58334491 -.01176484  00000-0 -36356-1 0  9994,2 53864  53.2173 128.5682 0001614  39.8154 136.5661 15.36002956  1302,6836.08,93.75,459.048,456.842,0.0
53864.0,STARLINK-4779,PAYLOAD,2022-12-27 22:00:00,15.35173377,0.0001813,53.2168,127.0098,43.4284,176.6642,-0.036565,-0.01154177,0.0,0 STARLINK-4779,1 53864U 22114AY  22361.91667824 -.01154177  00000-0 -36565-1 0  9997,2 53864  53.2168 127.0098 0001813  43.4284 176.6642 15.35173377  1306,6838.543000000002,93.8,461.647,459.168,0.0
53864.0,STARLINK-4779,PAYLOAD,2022-12-28 02:00:01,15.34755694,0.000166,53.2176,126.2294,36.3401,25.2441,-0.03654,-0.01139363,0.0,0 STARLINK-4779,1 53864U 22114AY  22362.08334491 -.01139363  00000-0 -36540-1 0  9990,2 53864  53.2176 126.2294 0001660  36.3401  25.2441 15.34755694 16293,6839.783,93.826,462.784,460.513,0.0
53864.0,STARLINK-4779,PAYLOAD,2022-12-28 14:00:01,15.33556452,0.0001506,53.2173,123.8973,48.6118,255.9505,-0.039022,-0.0116816,0.0,0 STARLINK-4779,1 53864U 22114AY  22362.58334491 -.01168160  00000-0 -39022-1 0  9990,2 53864  53.2173 123.8973 0001506  48.6118 255.9505 15.33556452  1306,6843.349,93.899,466.244,464.1830000000001,0.0
53864.0,STARLINK-4779,PAYLOAD,2022-12-28 22:00:00,15.32761194,0.0001754999999999,53.2167,122.3444,34.2641,311.0601,-0.040993,-0.01194043,0.0,0 STARLINK-4779,1 53864U 22114AY  22362.91667824 -.01194043  00000-0 -40993-1 0  9994,2 53864  53.2167 122.3444 0001755  34.2641 311.0601 15.32761194  1305,6845.715,93.948,468.782,466.379,0.0
53864.0,STARLINK-4779,PAYLOAD,2022-12-29 00:00:00,15.32516294,0.0001881,53.2172,121.9555,34.4294,50.9551,-0.039151,-0.01137003,0.0,0 STARLINK-4779,1 53864U 22114AY  22363.00001157 -.01137003  00000-0 -39151-1 0  9993,2 53864  53.2172 121.9555 0001881  34.4294  50.9551 15.32516294 16437,6846.445,93.963,469.598,467.022,0.0
53864.0,STARLINK-4779,PAYLOAD,2022-12-29 14:00:01,15.31105909,0.0001616,53.2172,119.2436,43.445,20.4999,-0.041651,-0.01155229,0.0,0 STARLINK-4779,1 53864U 22114AY  22363.58334491 -.01155229  00000-0 -41651-1 0  9994,2 53864  53.2172 119.2436 0001616  43.4450  20.4999 15.31105909  1309,6850.649,94.05,473.621,471.406,0.0
53864.0,STARLINK-4779,PAYLOAD,2022-12-30 00:00:00,15.30076281,0.0001764999999999,53.2172,117.3087,44.0787,157.0162,-0.042303,-0.01137849,0.0,0 STARLINK-4779,1 53864U 22114AY  22364.00001157 -.01137849  00000-0 -42303-1 0  9995,2 53864  53.2172 117.3087 0001765  44.0787 157.0162 15.30076281 16589,6853.721,94.113,476.796,474.377,0.0
53864.0,STARLINK-4779,PAYLOAD,2022-12-30 14:00:01,15.28673115,0.0001621999999999,53.2171,114.6072,49.4728,125.0455,-0.04541,-0.01182403,0.0,0 STARLINK-4779,1 53864U 22114AY  22364.58334491 -.01182403  00000-0 -45410-1 0  9996,2 53864  53.2171 114.6072 0001622  49.4728 125.0455 15.28673115  1308,6857.915,94.199,480.892,478.668,0.0
53864.0,STARLINK-4779,PAYLOAD,2022-12-31 00:00:00,15.2763655,0.0001665,53.2171,112.6795,39.019,268.9856,-0.045721,-0.01140186,0.0,0 STARLINK-4779,1 53864U 22114AY  22365.00001157 -.01140186  00000-0 -45721-1 0  9991,2 53864  53.2171 112.6795 0001665  39.0190 268.9856 15.27636550 16739,6861.017,94.263,484.024,481.739,0.0
53864.0,STARLINK-4779,PAYLOAD,2022-12-31 14:00:01,15.26215018,0.0001533,53.2171,109.988,50.3003,226.0022,-0.047855,-0.01157719,0.0,0 STARLINK-4779,1 53864U 22114AY  22365.58334491 -.01157719  00000-0 -47855-1 0  9994,2 53864  53.2171 109.9880 0001533  50.3003 226.0022 15.26215018  1304,6865.276,94.351,488.194,486.089,0.0
53864.0,STARLINK-4779,PAYLOAD,2022-12-31 22:00:00,15.25413287,0.0001681,53.2164,108.4517,40.965,267.3021,-0.049832,-0.01175171,0.0,0 STARLINK-4779,1 53864U 22114AY  22365.91667824 -.01175171  00000-0 -49832-1 0  9999,2 53864  53.2164 108.4517 0001681  40.9650 267.3021 15.25413287  1308,6867.682,94.401,490.701,488.392,0.0
53864.0,STARLINK-4779,PAYLOAD,2023-01-01 14:00:01,15.23776589,0.0001538,53.217,105.3859,43.7239,325.5536,-0.051716,-0.01162028,0.0,0 STARLINK-4779,1 53864U 22114AY  23001.58334491 -.01162028  00000-0 -51716-1 0  9992,2 53864  53.2170 105.3859 0001538  43.7239 325.5536 15.23776589  1308,6872.599,94.502,495.521,493.407,0.0
53864.0,STARLINK-4779,PAYLOAD,2023-01-02 00:00:00,15.22751327,0.0001810999999999,53.2172,103.4723,40.7708,94.6536,-0.052719,-0.01149903,0.0,0 STARLINK-4779,1 53864U 22114AY  23002.00001157 -.01149903  00000-0 -52719-1 0  9991,2 53864  53.2172 103.4723 0001811  40.7708  94.6536 15.22751327  1307,6875.683000000001,94.566,498.793,496.30300000000005,0.0
53864.0,STARLINK-4779,PAYLOAD,2023-01-02 04:00:00,15.22342245,0.0001554999999999,53.2173,102.7074,41.8801,287.5747,-0.05319,-0.01146382,0.0,0 STARLINK-4779,1 53864U 22114AY  23002.16667824 -.01146382  00000-0 -53190-1 0  9999,2 53864  53.2173 102.7074 0001555  41.8801 287.5747 15.22342245 17062,6876.915,94.591,499.849,497.71,0.0
53864.0,STARLINK-4779,PAYLOAD,2023-01-02 14:00:01,15.2133435,0.0001673,53.2171,100.8012,44.1723,49.2807,-0.055512,-0.01160128,0.0,0 STARLINK-4779,1 53864U 22114AY  23002.58334491 -.01160128  00000-0 -55512-1 0  9990,2 53864  53.2171 100.8012 0001673  44.1723  49.2807 15.21334350  1308,6879.9519999999975,94.654,502.968,500.666,0.0
53864.0,STARLINK-4779,PAYLOAD,2023-01-02 22:00:00,15.20517573,0.0001848,53.2166,99.2759,41.8684,77.6893,-0.056615,-0.01155476,0.0,0 STARLINK-4779,1 53864U 22114AY  23002.91667824 -.01155476  00000-0 -56615-1 0  9991,2 53864  53.2166  99.2759 0001848  41.8684  77.6893 15.20517573  1304,6882.415,94.705,505.552,503.008,0.0
53864.0,STARLINK-4779,PAYLOAD,2023-01-03 00:00:00,15.20309974,0.0001715,53.2173,98.8943,45.9202,170.0126,-0.056625,-0.01149149,0.0,0 STARLINK-4779,1 53864U 22114AY  23003.00001157 -.01149149  00000-0 -56625-1 0  9994,2 53864  53.2173  98.8943 0001715  45.9202 170.0126 15.20309974 17191,6883.042,94.718,506.087,503.726,0.0
